*******************************************************************************
Ephemeris / WWW_USER Thu Feb  4 09:38:28 2021 Pasadena, USA      / Horizons    
*******************************************************************************
Target body name: Moon (301)                      {source: DE431mx}
Center body name: Earth (399)                     {source: DE431mx}
Center-site name: GEOCENTRIC
*******************************************************************************
Start time      : A.D. 2020-Jan-01 00:00:00.0000 UT      
Stop  time      : A.D. 2029-Dec-31 00:00:00.0000 UT      
Step-size       : 2880 minutes
*******************************************************************************
Target pole/equ : IAU_MOON                        {East-longitude positive}
Target radii    : 1737.4 x 1737.4 x 1737.4 km     {Equator, meridian, pole}    
Center geodetic : 0.00000000,0.00000000,0.0000000 {E-lon(deg),Lat(deg),Alt(km)}
Center cylindric: 0.00000000,0.00000000,0.0000000 {E-lon(deg),Dxy(km),Dz(km)}
Center pole/equ : High-precision EOP model        {East-longitude positive}
Center radii    : 6378.1 x 6378.1 x 6356.8 km     {Equator, meridian, pole}    
Target primary  : Earth
Vis. interferer : MOON (R_eq= 1737.400) km        {source: DE431mx}
Rel. light bend : Sun, EARTH                      {source: DE431mx}
Rel. lght bnd GM: 1.3271E+11, 3.9860E+05 km^3/s^2                              
Atmos refraction: NO (AIRLESS)
RA format       : DEG
Time format     : CAL 
EOP file        : eop.210203.p210427                                           
EOP coverage    : DATA-BASED 1962-JAN-20 TO 2021-FEB-03. PREDICTS-> 2021-APR-26
Units conversion: 1 au= 149597870.700 km, c= 299792.458 km/s, 1 day= 86400.0 s 
Table cut-offs 1: Elevation (-90.0deg=NO ),Airmass (>38.000=NO), Daylight (NO )
Table cut-offs 2: Solar elongation (  0.0,180.0=NO ),Local Hour Angle( 0.0=NO )
Table cut-offs 3: RA/DEC angular rate (     0.0=NO )                           
Table format    : Comma Separated Values (spreadsheet)
*******************************************************************************
 Date__(UT)__HR:MN, , ,    ObsEcLon,   ObsEcLat,
************************************************
$$SOE
 2028-Aug-26 00:00, , , 229.8591916, -4.5965697,
 2028-Aug-28 00:00, , , 256.6026818, -3.0356279,
 2028-Aug-30 00:00, , , 281.9264696, -0.9493542,
 2028-Sep-01 00:00, , , 306.3196154,  1.2334068,
 2028-Sep-03 00:00, , , 330.2211693,  3.1477768,
 2028-Sep-05 00:00, , , 353.9449045,  4.4983349,
 2028-Sep-07 00:00, , ,  17.7246659,  5.0763977,
 2028-Sep-09 00:00, , ,  41.8165058,  4.7755184,
 2028-Sep-11 00:00, , ,  66.5887108,  3.5940500,
 2028-Sep-13 00:00, , ,  92.5308806,  1.6466730,
 2028-Sep-15 00:00, , , 120.1146327, -0.7783583,
 2028-Sep-17 00:00, , , 149.4589632, -3.1393678,
 2028-Sep-19 00:00, , , 179.9360781, -4.7131449,
 2028-Sep-21 00:00, , , 210.2185802, -4.9746272,
 2028-Sep-23 00:00, , , 239.0433835, -3.9510526,
 2028-Sep-25 00:00, , , 265.9325247, -2.0944131,
 2028-Sep-27 00:00, , , 291.1674278,  0.0751704,
 2028-Sep-29 00:00, , , 315.3584716,  2.1421841,
 2028-Oct-01 00:00, , , 339.1016786,  3.7927474,
 2028-Oct-03 00:00, , ,   2.8271627,  4.7840417,
 2028-Oct-05 00:00, , ,  26.7892843,  4.9498051,
 2028-Oct-07 00:00, , ,  51.1537959,  4.2310119,
 2028-Oct-09 00:00, , ,  76.1281866,  2.6996777,
 2028-Oct-11 00:00, , , 102.0487941,  0.5681267,
 2028-Oct-13 00:00, , , 129.3275178, -1.7932919,
 2028-Oct-15 00:00, , , 158.1873795, -3.8369262,
 2028-Oct-17 00:00, , , 188.2542038, -4.9320459,
 2028-Oct-19 00:00, , , 218.4147840, -4.6855222,
 2028-Oct-21 00:00, , , 247.3766835, -3.2368975,
 2028-Oct-23 00:00, , , 274.4642142, -1.1219607,
 2028-Oct-25 00:00, , , 299.8071718,  1.0998728,
 2028-Oct-27 00:00, , , 323.9963793,  3.0271333,
 2028-Oct-29 00:00, , , 347.7114941,  4.3929028,
 2028-Oct-31 00:00, , ,  11.5074106,  5.0064805,
 2028-Nov-02 00:00, , ,  35.7310838,  4.7458013,
 2028-Nov-04 00:00, , ,  60.5401203,  3.5997501,
 2028-Nov-06 00:00, , ,  86.0087220,  1.7166195,
 2028-Nov-08 00:00, , , 112.2583728, -0.5846802,
 2028-Nov-10 00:00, , , 139.4973697, -2.8436409,
 2028-Nov-12 00:00, , , 167.8746331, -4.5146778,
 2028-Nov-14 00:00, , , 197.1799918, -5.0929739,
 2028-Nov-16 00:00, , , 226.6586214, -4.3536594,
 2028-Nov-18 00:00, , , 255.2877886, -2.5387861,
 2028-Nov-20 00:00, , , 282.3678438, -0.2234787,
 2028-Nov-22 00:00, , , 307.8348329,  2.0184081,
 2028-Nov-24 00:00, , , 332.1244527,  3.7976210,
 2028-Nov-26 00:00, , , 355.8847751,  4.8865890,
 2028-Nov-28 00:00, , ,  19.7514443,  5.1442155,
 2028-Nov-30 00:00, , ,  44.2071941,  4.4923883,
 2028-Dec-02 00:00, , ,  69.5076126,  2.9624345,
 2028-Dec-04 00:00, , ,  95.6877089,  0.7704403,
 2028-Dec-06 00:00, , , 122.6553437, -1.6589752,
 2028-Dec-08 00:00, , , 150.3026127, -3.7725701,
 2028-Dec-10 00:00, , , 178.5227019, -5.0377894,
 2028-Dec-12 00:00, , , 207.1012230, -5.1007949,
 2028-Dec-14 00:00, , , 235.6046803, -3.9255372,
 2028-Dec-16 00:00, , , 263.4470610, -1.8460069,
 2028-Dec-18 00:00, , , 290.1461025,  0.5679307,
 2028-Dec-20 00:00, , , 315.5567780,  2.7641995,
 2028-Dec-22 00:00, , , 339.9134350,  4.3707639,
 2028-Dec-24 00:00, , ,   3.7195347,  5.1911408,
 2028-Dec-26 00:00, , ,  27.5958702,  5.1304418,
 2028-Dec-28 00:00, , ,  52.1372006,  4.1564508,
 2028-Dec-30 00:00, , ,  77.7740858,  2.3376966,
 2029-Jan-01 00:00, , , 104.6475853, -0.0621808,
 2029-Jan-03 00:00, , , 132.5555600, -2.5337345,
 2029-Jan-05 00:00, , , 161.0401784, -4.4395368,
 2029-Jan-07 00:00, , , 189.5892946, -5.2699105,
 2029-Jan-09 00:00, , , 217.8074346, -4.8368698,
 2029-Jan-11 00:00, , , 245.4462737, -3.2985674,
 2029-Jan-13 00:00, , , 272.3386623, -1.0716557,
 2029-Jan-15 00:00, , , 298.3572845,  1.3093315,
 2029-Jan-17 00:00, , , 323.4553022,  3.3527714,
 2029-Jan-19 00:00, , , 347.7463992,  4.7227927,
 2029-Jan-21 00:00, , ,  11.5508702,  5.2525561,
 2029-Jan-23 00:00, , ,  35.3756499,  4.8904354,
 2029-Jan-25 00:00, , ,  59.8359449,  3.6553380,
 2029-Jan-27 00:00, , ,  85.5204638,  1.6572298,
 2029-Jan-29 00:00, , , 112.7845564, -0.8103827,
 2029-Jan-31 00:00, , , 141.5059935, -3.1942254,
 2029-Feb-02 00:00, , , 170.9931028, -4.8056902,
 2029-Feb-04 00:00, , , 200.2749906, -5.1694099,
 2029-Feb-06 00:00, , , 228.6203519, -4.2628721,
 2029-Feb-08 00:00, , , 255.7966323, -2.4274684,
 2029-Feb-10 00:00, , , 281.9272283, -0.1508489,
 2029-Feb-12 00:00, , , 307.2281521,  2.0795133,
 2029-Feb-14 00:00, , , 331.8642834,  3.8555537,
 2029-Feb-16 00:00, , , 355.9650398,  4.9007863,
 2029-Feb-18 00:00, , ,  19.7261222,  5.0864463,
 2029-Feb-20 00:00, , ,  43.5014192,  4.4043603,
 2029-Feb-22 00:00, , ,  67.8245955,  2.9301355,
 2029-Feb-24 00:00, , ,  93.3357516,  0.8276678,
 2029-Feb-26 00:00, , , 120.5806200, -1.5799426,
 2029-Feb-28 00:00, , , 149.6579606, -3.7340392,
 2029-Mar-02 00:00, , , 179.8885294, -4.9520085,
 2029-Mar-04 00:00, , , 209.9826898, -4.8171544,
 2029-Mar-06 00:00, , , 238.8109867, -3.4588740,
 2029-Mar-08 00:00, , , 265.9843531, -1.3763499,
 2029-Mar-10 00:00, , , 291.7401114,  0.8876275,
 2029-Mar-12 00:00, , , 316.5321957,  2.8947131,
 2029-Mar-14 00:00, , , 340.7479615,  4.3248473,
 2029-Mar-16 00:00, , ,   4.6327874,  4.9740935,
 2029-Mar-18 00:00, , ,  28.3618941,  4.7622964,
 2029-Mar-20 00:00, , ,  52.1714788,  3.7280471,
 2029-Mar-22 00:00, , ,  76.4606511,  2.0079127,
 2029-Mar-24 00:00, , , 101.7989553, -0.1684245,
 2029-Mar-26 00:00, , , 128.7872436, -2.4375071,
 2029-Mar-28 00:00, , , 157.7164676, -4.2541849,
 2029-Mar-30 00:00, , , 188.1136171, -4.9989839,
 2029-Apr-01 00:00, , , 218.6760564, -4.3512344,
 2029-Apr-03 00:00, , , 248.0111341, -2.5722324,
 2029-Apr-05 00:00, , , 275.4729852, -0.2827501,
 2029-Apr-07 00:00, , , 301.2264534,  1.9363197,
 2029-Apr-09 00:00, , , 325.8133156,  3.6937529,
 2029-Apr-11 00:00, , , 349.7813953,  4.7517097,
 2029-Apr-13 00:00, , ,  13.5256522,  4.9799226,
 2029-Apr-15 00:00, , ,  37.2909207,  4.3514192,
 2029-Apr-17 00:00, , ,  61.2721546,  2.9536747,
 2029-Apr-19 00:00, , ,  85.7411490,  0.9866492,
 2029-Apr-21 00:00, , , 111.1173366, -1.2468134,
 2029-Apr-23 00:00, , , 137.9051662, -3.3348108,
 2029-Apr-25 00:00, , , 166.4344041, -4.7550294,
 2029-Apr-27 00:00, , , 196.4437186, -4.9930649,
 2029-Apr-29 00:00, , , 226.8790302, -3.8597083,
 2029-May-01 00:00, , , 256.3845376, -1.7234990,
 2029-May-03 00:00, , , 284.1263663,  0.7205333,
 2029-May-05 00:00, , , 310.0725341,  2.8718794,
 2029-May-07 00:00, , , 334.6961650,  4.3805820,
 2029-May-09 00:00, , , 358.6032014,  5.0804409,
 2029-May-11 00:00, , ,  22.3156434,  4.9091708,
 2029-May-13 00:00, , ,  46.1986866,  3.8909770,
 2029-May-15 00:00, , ,  70.4873540,  2.1595756,
 2029-May-17 00:00, , ,  95.3747564, -0.0232230,
 2029-May-19 00:00, , , 121.1014481, -2.2786484,
 2029-May-21 00:00, , , 147.9617131, -4.1451305,
 2029-May-23 00:00, , , 176.1565206, -5.1359712,
 2029-May-25 00:00, , , 205.5139679, -4.8737232,
 2029-May-27 00:00, , , 235.3044130, -3.3256983,
 2029-May-29 00:00, , , 264.4762563, -0.9408037,
 2029-May-31 00:00, , , 292.2191765,  1.5691987,
 2029-Jun-02 00:00, , , 318.3159644,  3.6118725,
 2029-Jun-04 00:00, , , 343.0653901,  4.8727089,
 2029-Jun-06 00:00, , ,   7.0208656,  5.2436441,
 2029-Jun-08 00:00, , ,  30.7707966,  4.7217728,
 2029-Jun-10 00:00, , ,  54.8090635,  3.3773759,
 2029-Jun-12 00:00, , ,  79.4765194,  1.3834050,
 2029-Jun-14 00:00, , , 104.9602981, -0.9445102,
 2029-Jun-16 00:00, , , 131.3376123, -3.1556068,
 2029-Jun-18 00:00, , , 158.6225329, -4.7438611,
 2029-Jun-20 00:00, , , 186.7550410, -5.2762134,
 2029-Jun-22 00:00, , , 215.5133851, -4.5383823,
 2029-Jun-24 00:00, , , 244.4322085, -2.6673811,
 2029-Jun-26 00:00, , , 272.8676694, -0.1692107,
 2029-Jun-28 00:00, , , 300.2370965,  2.2820013,
 2029-Jun-30 00:00, , , 326.2666613,  4.1409131,
 2029-Jul-02 00:00, , , 351.0734422,  5.1316285,
 2029-Jul-04 00:00, , ,  15.0799090,  5.1921620,
 2029-Jul-06 00:00, , ,  38.8640703,  4.3699663,
